     2.11           N: GPS NAV DATA                         RINEX VERSION / TYPE
teqc  2019Feb25     CORS-ADM Account    20260511 22:45:01UTCPGM / RUN BY / DATE
Linux 2.4.21-27.ELsmp|Opteron|gcc|Linux 64|=+               COMMENT
     2.10           N: GPS NAV DATA                         COMMENT
rvacn.e(1404.07)                        2026-05-11T22:27 UTCCOMMENT
This file contains the validated broadcast navigation       COMMENT
messages from the following files:                          COMMENT
aaaa1310.26n, abmf131v.26n, abpo131v.26n, albh131v.26n,     COMMENT
alic131v.26n, areq131v.26n, aruc131v.26n, baie131v.26n,     COMMENT
bake131v.26n, brew131v.26n, brst131v.26n, brux131v.26n,     COMMENT
bshm131v.26n, bucu131v.26n, cebr131v.26n, chpi131v.26n,     COMMENT
chum131v.26n, chur131v.26n, ckis131v.26n, coco131v.26n,     COMMENT
cro1131v.26n, darw131v.26n, dav1131v.26n, dgar131v.26n,     COMMENT
djig131v.26n, dlf1131v.26n, drao131v.26n, dubo131v.26n,     COMMENT
ebre131v.26n, faa1131v.26n, fair131v.26n, falk131v.26n,     COMMENT
flin131v.26n, glps131v.26n, glsv131v.26n, gode131v.26n,     COMMENT
guam131v.26n, harb131v.26n, hers131v.26n, hlfx131v.26n,     COMMENT
hob2131v.26n, hofn131v.26n, holb131v.26n, hrao131v.26n,     COMMENT
iisc131v.26n, iqal131v.26n, ista131v.26n, joze131v.26n,     COMMENT
jplm131v.26n, karr131v.26n, kat1131v.26n, kiri131v.26n,     COMMENT
kiru131v.26n, kokb131v.26n, koug131v.26n, kour131v.26n,     COMMENT
lmmf131v.26n, lpal131v.26n, m0se131v.26n, mac1131v.26n,     COMMENT
mal2131v.26n, mar6131v.26n, mas1131v.26n, mat1131v.26n,     COMMENT
mate131v.26n, maw1131v.26n, mcm4131v.26n, mdo1131v.26n,     COMMENT
medi131v.26n, met3131v.26n, mkea131v.26n, mobs131v.26n,     COMMENT
mro1131v.26n, nain131v.26n, nano131v.26n, naur131v.26n,     COMMENT
nico131v.26n, nklg131v.26n, nlib131v.26n, nnor131v.26n,     COMMENT
not1131v.26n, nrc1131v.26n, onsa131v.26n, orid131v.26n,     COMMENT
palm131v.26n, pert131v.26n, picl131v.26n, pie1131v.26n,     COMMENT
pimo131v.26n, prds131v.26n, ptvl131v.26n, qaq1131v.26n,     COMMENT
qiki131v.26n, reso131v.26n, reun131v.26n, reyk131v.26n,     COMMENT
riga131v.26n, sant131v.26n, sask131v.26n, sch2131v.26n,     COMMENT
scor131v.26n, seyg131v.26n, solo131v.26n, stj3131v.26n,     COMMENT
stjo131v.26n, stpm131v.26n, suth131v.26n, suwn131v.26n,     COMMENT
sydn131v.26n, thtg131v.26n, thu2131v.26n, tid1131v.26n,     COMMENT
tuva131v.26n, vacs131v.26n, vald131v.26n, vill131v.26n,     COMMENT
vis0131v.26n, warn131v.26n, whit131v.26n, will131v.26n,     COMMENT
wsrt131v.26n, xmis131v.26n, yar2131v.26n, yebe131v.26n,     COMMENT
yell131v.26n, zim2131v.26n, zimm131v.26n                    COMMENT
    1.6760D-08  2.2350D-08 -1.1920D-07 -1.1920D-07          ION ALPHA
    1.1060D+05  9.8300D+04 -1.3110D+05 -1.9660D+05          ION BETA
    1.862645149230D-09 3.552713678800D-15   147456     2418 DELTA-UTC: A0,A1,T,W
                                                            END OF HEADER
15 26  5 11 12  0  0.0 4.106466658413D-04 3.296918293927D-12 0.000000000000D+00
    5.900000000000D+01-1.518750000000D+01 5.195573559350D-09 6.747751450818D-01
   -8.810311555862D-07 1.673280156683D-02 4.688277840614D-06 5.153724615097D+03
    1.296000000000D+05-1.601874828339D-07-2.551202444462D+00-1.341104507446D-07
    9.436614293434D-01 2.860000000000D+02 1.515357786609D+00-8.830724977998D-09
    2.428672592533D-11 1.000000000000D+00 2.418000000000D+03 0.000000000000D+00
    2.000000000000D+00 0.000000000000D+00-1.117587089539D-08 5.900000000000D+01
    1.240760000000D+05 4.000000000000D+00
17 26  5 11 12  0  0.0-1.326357014477D-04-8.185452315956D-12 0.000000000000D+00
    2.900000000000D+01 5.531250000000D+00 4.931991151514D-09 1.651218846727D+00
    1.396983861923D-07 1.258419360965D-02 4.826113581657D-06 5.153629089355D+03
    1.296000000000D+05 2.570450305939D-07 8.186826715680D-01-7.450580596924D-08
    9.583733761894D-01 2.796875000000D+02-1.110312074235D+00-8.248915028993D-09
   -3.007268121931D-10 1.000000000000D+00 2.418000000000D+03 0.000000000000D+00
    2.000000000000D+00 0.000000000000D+00-1.117587089539D-08 2.900000000000D+01
    1.224180000000D+05 4.000000000000D+00
18 26  5 11 12  0  0.0-3.552343696356D-04 9.322320693173D-12 0.000000000000D+00
    7.500000000000D+01-1.678125000000D+01 4.168387915802D-09-3.272191669060D-01
   -1.098960638046D-06 5.957888555713D-03 8.577480912209D-06 5.153631999969D+03
    1.296000000000D+05 8.195638656616D-08 1.830423942973D+00 8.009374141693D-08
    9.710840247703D-01 2.204062500000D+02-2.873779159340D+00-8.007476400676D-09
   -3.932306653499D-10 1.000000000000D+00 2.418000000000D+03 0.000000000000D+00
    2.000000000000D+00 0.000000000000D+00-8.381903171539D-09 3.310000000000D+02
    1.224180000000D+05 4.000000000000D+00
19 26  5 11 12  0  0.0 6.994944997132D-04 9.094947017729D-13 0.000000000000D+00
    4.300000000000D+01 7.937500000000D+00 4.874845914042D-09-2.903318743519D+00
    4.488974809647D-07 1.147114054766D-02 5.315989255905D-06 5.153736490250D+03
    1.296000000000D+05-1.620501279831D-07 8.625233040148D-01 5.215406417847D-08
    9.575064319177D-01 2.772500000000D+02 2.970935292591D+00-8.183912321369D-09
   -2.482246252663D-10 1.000000000000D+00 2.418000000000D+03 0.000000000000D+00
    2.000000000000D+00 0.000000000000D+00-1.536682248116D-08 4.300000000000D+01
    1.258780000000D+05 4.000000000000D+00
20 26  5 11 12  0  0.0 1.494744792581D-04 1.693933882052D-11 0.000000000000D+00
    1.060000000000D+02-2.903125000000D+01 4.686266630387D-09-1.959008586079D+00
   -1.514330506325D-06 2.088463166729D-03 4.282221198082D-06 5.153599824905D+03
    1.296000000000D+05 1.154839992523D-07-2.400248165936D+00-1.117587089539D-08
    9.609563906623D-01 2.949687500000D+02-1.859007027425D+00-8.305703108730D-09
    7.250302004181D-11 1.000000000000D+00 2.418000000000D+03 0.000000000000D+00
    2.000000000000D+00 0.000000000000D+00-8.847564458847D-09 1.060000000000D+02
    1.224270000000D+05 4.000000000000D+00
21 26  5 11 12  0  0.0 4.146220162511D-04-7.958078640513D-13 0.000000000000D+00
    3.500000000000D+01 3.431250000000D+01 4.374825086168D-09-2.283597651568D+00
    1.814216375351D-06 7.767924107611D-04 7.785856723785D-06 5.153548496246D+03
    1.296000000000D+05-7.450580596924D-09 2.877690232789D+00 1.117587089539D-08
    9.638445552174D-01 2.319062500000D+02-1.603513225676D-01-8.100337411567D-09
    2.589393572922D-10 1.000000000000D+00 2.418000000000D+03 0.000000000000D+00
    2.828427076340D+00 0.000000000000D+00-9.778887033463D-09 5.470000000000D+02
    1.224280000000D+05 4.000000000000D+00
22 26  5 11 12  0  0.0-4.072207957506D-06 6.593836587854D-12 0.000000000000D+00
    9.900000000000D+01 5.559375000000D+01 4.720553772870D-09 2.292871737346D+00
    2.834945917130D-06 1.193977601361D-02 8.681789040565D-06 5.153726007462D+03
    1.296000000000D+05 2.179294824600D-07-1.940269609046D-01-1.490116119385D-08
    9.578128839969D-01 2.080312500000D+02-9.954774786156D-01-7.982475359282D-09
    2.046513816944D-10 1.000000000000D+00 2.418000000000D+03 0.000000000000D+00
    2.000000000000D+00 0.000000000000D+00-1.117587089539D-08 9.900000000000D+01
    1.224290000000D+05 4.000000000000D+00
24 26  5 11 12  0  0.0 5.628913640976D-06 1.841726771090D-11 0.000000000000D+00
    3.600000000000D+01-5.343750000000D+01 5.213431446060D-09-1.370212155979D-01
   -2.808868885040D-06 1.806680718437D-02 9.108334779739D-06 5.153641326904D+03
    1.296000000000D+05-1.359730958939D-07-1.442226526455D+00 2.589076757431D-07
    9.347204236804D-01 1.972187500000D+02 1.145889532407D+00-8.662860842926D-09
   -4.321608583773D-11 1.000000000000D+00 2.418000000000D+03 0.000000000000D+00
    2.000000000000D+00 0.000000000000D+00 2.328306436539D-09 3.600000000000D+01
    1.224180000000D+05 4.000000000000D+00
25 26  5 11 12  0  0.0 4.235133528709D-04-2.842170943040D-12 0.000000000000D+00
    2.400000000000D+01 5.606250000000D+01 4.923776523627D-09-1.942262853947D+00
    2.907589077950D-06 1.285139564425D-02 8.622184395790D-06 5.153698255539D+03
    1.296000000000D+05 2.048909664154D-07-3.088085184286D-01 1.676380634308D-08
    9.475874728332D-01 2.032812500000D+02 1.161003949960D+00-8.052478275185D-09
    3.735869899691D-10 1.000000000000D+00 2.418000000000D+03 0.000000000000D+00
    2.000000000000D+00 0.000000000000D+00 5.587935447693D-09 2.400000000000D+01
    1.224180000000D+05 4.000000000000D+00
26 26  5 11 12  0  0.0-3.638230264187D-04-4.092726157978D-12 0.000000000000D+00
    9.300000000000D+01 5.681250000000D+01 5.326293290066D-09-2.774662496424D+00
    2.659857273102D-06 1.104326301720D-02 9.130686521530D-06 5.153756238937D+03
    1.296000000000D+05 2.980232238770D-08-3.846076861911D-01-1.676380634308D-07
    9.283031784564D-01 1.872500000000D+02 7.141437598455D-01-8.258558287816D-09
    3.482287908412D-10 1.000000000000D+00 2.418000000000D+03 0.000000000000D+00
    2.800000000000D+00 0.000000000000D+00 6.519258022308D-09 9.300000000000D+01
    1.224180000000D+05 4.000000000000D+00
27 26  5 11 12  0  0.0-1.465305685997D-04-1.716671249596D-11 0.000000000000D+00
    6.800000000000D+01 9.281250000000D+00 5.170572517957D-09 1.789958827221D+00
    2.980232238770D-07 1.435137633234D-02 5.599111318588D-06 5.153666950226D+03
    1.296000000000D+05-3.948807716370D-07 7.455430566894D-01-1.080334186554D-07
    9.518739530052D-01 2.698750000000D+02 8.975953561752D-01-8.449994833345D-09
   -1.714357124141D-10 1.000000000000D+00 2.418000000000D+03 0.000000000000D+00
    2.800000000000D+00 6.300000000000D+01 2.328306436539D-09 6.800000000000D+01
    1.224180000000D+05 4.000000000000D+00
